
    {
      "objectName": "STARLINK-11588 [DTC]",
      "objectId": "2025-057N",
      "noradId": 63319,
      "epochUtc": "2026-03-16T20:00:01.999008Z",
      "meanMotionRevPerDay": 15.70803141,
      "eccentricity": 0.0001817,
      "inclinationDeg": 43.0004,
      "raanDeg": 221.3668,
      "argPerigeeDeg": 271.2833,
      "meanAnomalyDeg": 39.8436,
      "bstar": 0.00030677,
      "meanMotionDot": 0.00039039,
      "meanMotionDdot": 0,
      "elementSetNo": 999,
      "revAtEpoch": 580
    },
    {
      "objectName": "STARLINK-33691",
      "objectId": "2025-070C",
      "noradId": 63462,
      "epochUtc": "2026-03-16T16:57:50.706432Z",
      "meanMotionRevPerDay": 15.27593024,
      "eccentricity": 0.0001911,
      "inclinationDeg": 43.0024,
      "raanDeg": 219.8245,
      "argPerigeeDeg": 273.5247,
      "meanAnomalyDeg": 86.5386,
      "bstar": 0.00071575,
      "meanMotionDot": 0.00019494,
      "meanMotionDdot": 0,
      "elementSetNo": 999,
      "revAtEpoch": 5400
    },
    {
      "objectName": "STARLINK-33701",
      "objectId": "2025-070E",
      "noradId": 63464,
      "epochUtc": "2026-03-16T19:51:33.827040Z",
      "meanMotionRevPerDay": 15.27594721,
      "eccentricity": 0.000169,
      "inclinationDeg": 42.9992,
      "raanDeg": 219.87,
      "argPerigeeDeg": 269.0569,
      "meanAnomalyDeg": 91.0089,
      "bstar": 0.0010398,
      "meanMotionDot": 0.00028475,
      "meanMotionDdot": 0,
      "elementSetNo": 999,
      "revAtEpoch": 5406
    },
    {
      "objectName": "STARLINK-33637",
      "objectId": "2025-070L",
      "noradId": 63470,
      "epochUtc": "2026-03-16T18:22:57.853632Z",
      "meanMotionRevPerDay": 15.27584179,
      "eccentricity": 0.0001561,
      "inclinationDeg": 43.0001,
      "raanDeg": 220.267,
      "argPerigeeDeg": 268.3817,
      "meanAnomalyDeg": 91.6855,
      "bstar": 0.00093695,
      "meanMotionDot": 0.00025614,
      "meanMotionDdot": 0,
      "elementSetNo": 999,
      "revAtEpoch": 5405
    },
    {
      "objectName": "STARLINK-33731",
      "objectId": "2025-070R",
      "noradId": 63475,
      "epochUtc": "2026-03-16T18:19:15.314016Z",
      "meanMotionRevPerDay": 15.27597004,
      "eccentricity": 0.0001591,
      "inclinationDeg": 42.9991,
      "raanDeg": 220.2468,
      "argPerigeeDeg": 263.1109,
      "meanAnomalyDeg": 96.9561,
      "bstar": 0.00099471,
      "meanMotionDot": 0.00027226,
      "meanMotionDdot": 0,
      "elementSetNo": 999,
      "revAtEpoch": 5405
    },
    {
      "objectName": "STARLINK-33718",
      "objectId": "2025-070S",
      "noradId": 63476,
      "epochUtc": "2026-03-15T19:05:12.269760Z",
      "meanMotionRevPerDay": 15.27616922,
      "eccentricity": 0.00017472,
      "inclinationDeg": 43.0021,
      "raanDeg": 225.0168,
      "argPerigeeDeg": 270.7854,
      "meanAnomalyDeg": 89.2798,
      "bstar": 0.0008648843,
      "meanMotionDot": 0.00023641,
      "meanMotionDdot": 0,
      "elementSetNo": 999,
      "revAtEpoch": 5391
    },
    {
      "objectName": "STARLINK-33695",
      "objectId": "2025-070U",
      "noradId": 63478,
      "epochUtc": "2026-03-16T17:05:56.370336Z",
      "meanMotionRevPerDay": 15.27588376,
      "eccentricity": 0.0001397,
      "inclinationDeg": 42.9988,
      "raanDeg": 216.3783,
      "argPerigeeDeg": 215.4883,
      "meanAnomalyDeg": 144.5876,
      "bstar": 0.00064871,
      "meanMotionDot": 0.00017636,
      "meanMotionDdot": 0,
      "elementSetNo": 999,
      "revAtEpoch": 5409
    },
    {
      "objectName": "STARLINK-33770",
      "objectId": "2025-095S",
      "noradId": 63906,
      "epochUtc": "2026-03-15T12:39:36.124416Z",
      "meanMotionRevPerDay": 15.27597995,
      "eccentricity": 0.00018366,
      "inclinationDeg": 42.9996,
      "raanDeg": 142.9839,
      "argPerigeeDeg": 275.827,
      "meanAnomalyDeg": 84.2372,
      "bstar": 0.0011093058,
      "meanMotionDot": 0.00030407,
      "meanMotionDdot": 0,
      "elementSetNo": 999,
      "revAtEpoch": 4867
    },
    {
      "objectName": "STARLINK-34106",
      "objectId": "2025-095T",
      "noradId": 63907,
      "epochUtc": "2026-03-15T14:08:12.338016Z",
      "meanMotionRevPerDay": 15.2760235,
      "eccentricity": 0.00018251,
      "inclinationDeg": 43.0028,
      "raanDeg": 142.586,
      "argPerigeeDeg": 258.4616,
      "meanAnomalyDeg": 101.6031,
      "bstar": 0.0012359335,
      "meanMotionDot": 0.00033928,
      "meanMotionDdot": 0,
      "elementSetNo": 999,
      "revAtEpoch": 4868
    },
    {
      "objectName": "STARLINK-33956",
      "objectId": "2025-098B",
      "noradId": 63927,
      "epochUtc": "2026-03-16T05:08:51.331200Z",
      "meanMotionRevPerDay": 14.98336004,
      "eccentricity": 0.00020836,
      "inclinationDeg": 69.9989,
      "raanDeg": 257.8453,
      "argPerigeeDeg": 261.4102,
      "meanAnomalyDeg": 98.6821,
      "bstar": 0.00052938462,
      "meanMotionDot": 0.0000623,
      "meanMotionDdot": 0,
      "elementSetNo": 999,
      "revAtEpoch": 4755
    },
    {
      "objectName": "STARLINK-33997",
      "objectId": "2025-098C",
      "noradId": 63928,
      "epochUtc": "2026-03-16T20:58:11.747712Z",
      "meanMotionRevPerDay": 14.98336271,
      "eccentricity": 0.0002687,
      "inclinationDeg": 69.9995,
      "raanDeg": 256.5328,
      "argPerigeeDeg": 273.3528,
      "meanAnomalyDeg": 86.7323,
      "bstar": 0.00021344,
      "meanMotionDot": 0.00002455,
      "meanMotionDdot": 0,
      "elementSetNo": 999,
      "revAtEpoch": 4764
    },
    {
      "objectName": "STARLINK-33993",
      "objectId": "2025-098Z",
      "noradId": 63949,
      "epochUtc": "2026-03-16T17:58:08.208768Z",
      "meanMotionRevPerDay": 14.9832852,
      "eccentricity": 0.0002578,
      "inclinationDeg": 69.9995,
      "raanDeg": 256.4884,
      "argPerigeeDeg": 275.7831,
      "meanAnomalyDeg": 84.3034,
      "bstar": 0.000062179,
      "meanMotionDot": 0.00000649,
      "meanMotionDdot": 0,
      "elementSetNo": 999,
      "revAtEpoch": 4761
    },
    {
      "objectName": "STARLINK-34084",
      "objectId": "2025-099U",
      "noradId": 63970,
      "epochUtc": "2026-03-15T14:10:01.575264Z",
      "meanMotionRevPerDay": 15.27589201,
      "eccentricity": 0.00015384,
      "inclinationDeg": 42.9979,
      "raanDeg": 142.4694,
      "argPerigeeDeg": 284.7793,
      "meanAnomalyDeg": 75.2888,
      "bstar": 0.00074203581,
      "meanMotionDot": 0.00020219,
      "meanMotionDdot": 0,
      "elementSetNo": 999,
      "revAtEpoch": 4824
    }