STARLINK-11588 [DTC]    
1 63319U 25057N   26075.83335647  .00039039  00000+0  30677-3 0  9999
2 63319  43.0004 221.3668 0001817 271.2833  39.8436 15.70803141  5802
STARLINK-33691          
1 63462U 25070C   26075.70683688  .00019494  00000+0  71575-3 0  9995
2 63462  43.0024 219.8245 0001911 273.5247  86.5386 15.27593024 54002
STARLINK-33701          
1 63464U 25070E   26075.82747485  .00028475  00000+0  10398-2 0  9990
2 63464  42.9992 219.8700 0001690 269.0569  91.0089 15.27594721 54065
STARLINK-33637          
1 63470U 25070L   26075.76594738  .00025614  00000+0  93695-3 0  9995
2 63470  43.0001 220.2670 0001561 268.3817  91.6855 15.27584179 54054
STARLINK-33731          
1 63475U 25070R   26075.76337169  .00027226  00000+0  99471-3 0  9992
2 63475  42.9991 220.2468 0001591 263.1109  96.9561 15.27597004 54053
STARLINK-33718          
1 63476U 25070S   26074.79528090  .00023641  00000+0  86488-3 0  9991
2 63476  43.0021 225.0168 0001747 270.7854  89.2798 15.27616922 53916
STARLINK-33695          
1 63478U 25070U   26075.71245799  .00017636  00000+0  64871-3 0  9997
2 63478  42.9988 216.3783 0001397 215.4883 144.5876 15.27588376 54096
STARLINK-33770          
1 63906U 25095S   26074.52750144  .00030407  00000+0  11093-2 0  9991
2 63906  42.9996 142.9839 0001836 275.8270  84.2372 15.27597995 48670
STARLINK-34106          
1 63907U 25095T   26074.58903169  .00033928  00000+0  12359-2 0  9992
2 63907  43.0028 142.5860 0001825 258.4616 101.6031 15.27602350 48687
STARLINK-33956          
1 63927U 25098B   26075.21448300  .00006230  00000+0  52938-3 0  9993
2 63927  69.9989 257.8453 0002083 261.4102  98.6821 14.98336004 47555
STARLINK-33997          
1 63928U 25098C   26075.87374708  .00002455  00000+0  21344-3 0  9998
2 63928  69.9995 256.5328 0002687 273.3528  86.7323 14.98336271 47645
STARLINK-33993          
1 63949U 25098Z   26075.74870612  .00000649  00000+0  62179-4 0  9997
2 63949  69.9995 256.4884 0002578 275.7831  84.3034 14.98328520 47614
STARLINK-34084          
1 63970U 25099U   26074.59029601  .00020219  00000+0  74204-3 0  9994
2 63970  42.9979 142.4694 0001538 284.7793  75.2888 15.27589201 48240
